{
  "type": "FeatureCollection",
  "features": [
    {
      "type": "Feature",
      "properties": {
        "iso_a3": "GRC",
        "name": "Greece"
      },
      "geometry": {
        "type": "MultiPolygon",
        "coordinates": [
          [
            [
              [
                26.290003,
                35.29999
              ],
              [
                26.164998,
                35.004995
              ],
              [
                24.724982,
                34.919988
              ],
              [
                24.735007,
                35.084991
              ],
              [
                23.514978,
                35.279992
              ],
              [
                23.69998,
                35.705004
              ],
              [
                24.246665,
                35.368022
              ],
              [
                25.025015,
                35.424996
              ],
              [
                25.769208,
                35.354018
              ],
              [
                25.745023,
                35.179998
              ],
              [
                26.290003,
                35.29999
              ]
            ]
          ],
          [
            [
              [
                22.952377,
                41.337994
              ],
              [
                23.692074,
                41.309081
              ],
              [
                24.492645,
                41.583896
              ],
              [
                25.197201,
                41.234486
              ],
              [
                26.106138,
                41.328899
              ],
              [
                26.117042,
                41.826905
              ],
              [
                26.604196,
                41.562115
              ],
              [
                26.294602,
                40.936261
              ],
              [
                26.056942,
                40.824123
              ],
              [
                25.447677,
                40.852545
              ],
              [
                24.925848,
                40.947062
              ],
              [
                23.714811,
                40.687129
              ],
              [
                24.407999,
                40.124993
              ],
              [
                23.899968,
                39.962006
              ],
              [
                23.342999,
                39.960998
              ],
              [
                22.813988,
                40.476005
              ],
              [
                22.626299,
                40.256561
              ],
              [
                22.849748,
                39.659311
              ],
              [
                23.350027,
                39.190011
              ],
              [
                22.973099,
                38.970903
              ],
              [
                23.530016,
                38.510001
              ],
              [
                24.025025,
                38.219993
              ],
              [
                24.040011,
                37.655015
              ],
              [
                23.115003,
                37.920011
              ],
              [
                23.409972,
                37.409991
              ],
              [
                22.774972,
                37.30501
              ],
              [
                23.154225,
                36.422506
              ],
              [
                22.490028,
                36.41
              ],
              [
                21.670026,
                36.844986
              ],
              [
                21.295011,
                37.644989
              ],
              [
                21.120034,
                38.310323
              ],
              [
                20.730032,
                38.769985
              ],
              [
                20.217712,
                39.340235
              ],
              [
                20.150016,
                39.624998
              ],
              [
                20.615,
                40.110007
              ],
              [
                20.674997,
                40.435
              ],
              [
                20.99999,
                40.580004
              ],
              [
                21.02004,
                40.842727
              ],
              [
                21.674161,
                40.931275
              ],
              [
                22.055378,
                41.149866
              ],
              [
                22.597308,
                41.130487
              ],
              [
                22.76177,
                41.3048
              ],
              [
                22.952377,
                41.337994
              ]
            ]
          ]
        ]
      }
    },
    {
      "type": "Feature",
      "properties": {
        "iso_a3": "PRT",
        "name": "Portugal"
      },
      "geometry": {
        "type": "Polygon",
        "coordinates": [
          [
            [
              -9.034818,
              41.880571
            ],
            [
              -8.671946,
              42.134689
            ],
            [
              -8.263857,
              42.280469
            ],
            [
              -8.013175,
              41.790886
            ],
            [
              -7.422513,
              41.792075
            ],
            [
              -7.251309,
              41.918346
            ],
            [
              -6.668606,
              41.883387
            ],
            [
              -6.389088,
              41.381815
            ],
            [
              -6.851127,
              41.111083
            ],
            [
              -6.86402,
              40.330872
            ],
            [
              -7.026413,
              40.184524
            ],
            [
              -7.066592,
              39.711892
            ],
            [
              -7.498632,
              39.629571
            ],
            [
              -7.098037,
              39.030073
            ],
            [
              -7.374092,
              38.373059
            ],
            [
              -7.029281,
              38.075764
            ],
            [
              -7.166508,
              37.803894
            ],
            [
              -7.537105,
              37.428904
            ],
            [
              -7.453726,
              37.097788
            ],
            [
              -7.855613,
              36.838269
            ],
            [
              -8.382816,
              36.97888
            ],
            [
              -8.898857,
              36.868809
            ],
            [
              -8.746101,
              37.651346
            ],
            [
              -8.839998,
              38.266243
            ],
            [
              -9.287464,
              38.358486
            ],
            [
              -9.526571,
              38.737429
            ],
            [
              -9.446989,
              39.392066
            ],
            [
              -9.048305,
              39.755093
            ],
            [
              -8.977353,
              40.159306
            ],
            [
              -8.768684,
              40.760639
            ],
            [
              -8.790853,
              41.184334
            ],
            [
              -8.990789,
              41.543459
            ],
            [
              -9.034818,
              41.880571
            ]
          ]
        ]
      }
    },
    {
      "type": "Feature",
      "properties": {
        "iso_a3": "ESP",
        "name": "Spain"
      },
      "geometry": {
        "type": "Polygon",
        "coordinates": [
          [
            [
              -7.453726,
              37.097788
            ],
            [
              -7.537105,
              37.428904
            ],
            [
              -7.166508,
              37.803894
            ],
            [
              -7.029281,
              38.075764
            ],
            [
              -7.374092,
              38.373059
            ],
            [
              -7.098037,
              39.030073
            ],
            [
              -7.498632,
              39.629571
            ],
            [
              -7.066592,
              39.711892
            ],
            [
              -7.026413,
              40.184524
            ],
            [
              -6.86402,
              40.330872
            ],
            [
              -6.851127,
              41.111083
            ],
            [
              -6.389088,
              41.381815
            ],
            [
              -6.668606,
              41.883387
            ],
            [
              -7.251309,
              41.918346
            ],
            [
              -7.422513,
              41.792075
            ],
            [
              -8.013175,
              41.790886
            ],
            [
              -8.263857,
              42.280469
            ],
            [
              -8.671946,
              42.134689
            ],
            [
              -9.034818,
              41.880571
            ],
            [
              -8.984433,
              42.592775
            ],
            [
              -9.392884,
              43.026625
            ],
            [
              -7.97819,
              43.748338
            ],
            [
              -6.754492,
              43.567909
            ],
            [
              -5.411886,
              43.57424
            ],
            [
              -4.347843,
              43.403449
            ],
            [
              -3.517532,
              43.455901
            ],
            [
              -1.901351,
              43.422802
            ],
            [
              -1.502771,
              43.034014
            ],
            [
              0.338047,
              42.579546
            ],
            [
              0.701591,
              42.795734
            ],
            [
              1.826793,
              42.343385
            ],
            [
              2.985999,
              42.473015
            ],
            [
              3.039484,
              41.89212
            ],
            [
              2.091842,
              41.226089
            ],
            [
              0.810525,
              41.014732
            ],
            [
              0.721331,
              40.678318
            ],
            [
              0.106692,
              40.123934
            ],
            [
              -0.278711,
              39.309978
            ],
            [
              0.111291,
              38.738514
            ],
            [
              -0.467124,
              38.292366
            ],
            [
              -0.683389,
              37.642354
            ],
            [
              -1.438382,
              37.443064
            ],
            [
              -2.146453,
              36.674144
            ],
            [
              -3.415781,
              36.6589
            ],
            [
              -4.368901,
              36.677839
            ],
            [
              -4.995219,
              36.324708
            ],
            [
              -5.37716,
              35.94685
            ],
            [
              -5.866432,
              36.029817
            ],
            [
              -6.236694,
              36.367677
            ],
            [
              -6.520191,
              36.942913
            ],
            [
              -7.453726,
              37.097788
            ]
          ]
        ]
      }
    },
    {
      "type": "Feature",
      "properties": {
        "iso_a3": "ITA",
        "name": "Italy"
      },
      "geometry": {
        "type": "MultiPolygon",
        "coordinates": [
          [
            [
              [
                10.442701,
                46.893546
              ],
              [
                11.048556,
                46.751359
              ],
              [
                11.164828,
                46.941579
              ],
              [
                12.153088,
                47.115393
              ],
              [
                12.376485,
                46.767559
              ],
              [
                13.806475,
                46.509306
              ],
              [
                13.69811,
                46.016778
              ],
              [
                13.93763,
                45.591016
              ],
              [
                13.141606,
                45.736692
              ],
              [
                12.328581,
                45.381778
              ],
              [
                12.383875,
                44.885374
              ],
              [
                12.261453,
                44.600482
              ],
              [
                12.589237,
                44.091366
              ],
              [
                13.526906,
                43.587727
              ],
              [
                14.029821,
                42.761008
              ],
              [
                15.14257,
                41.95514
              ],
              [
                15.926191,
                41.961315
              ],
              [
                16.169897,
                41.740295
              ],
              [
                15.889346,
                41.541082
              ],
              [
                16.785002,
                41.179606
              ],
              [
                17.519169,
                40.877143
              ],
              [
                18.376687,
                40.355625
              ],
              [
                18.480247,
                40.168866
              ],
              [
                18.293385,
                39.810774
              ],
              [
                17.73838,
                40.277671
              ],
              [
                16.869596,
                40.442235
              ],
              [
                16.448743,
                39.795401
              ],
              [
                17.17149,
                39.4247
              ],
              [
                17.052841,
                38.902871
              ],
              [
                16.635088,
                38.843572
              ],
              [
                16.100961,
                37.985899
              ],
              [
                15.684087,
                37.908849
              ],
              [
                15.687963,
                38.214593
              ],
              [
                15.891981,
                38.750942
              ],
              [
                16.109332,
                38.964547
              ],
              [
                15.718814,
                39.544072
              ],
              [
                15.413613,
                40.048357
              ],
              [
                14.998496,
                40.172949
              ],
              [
                14.703268,
                40.60455
              ],
              [
                14.060672,
                40.786348
              ],
              [
                13.627985,
                41.188287
              ],
              [
                12.888082,
                41.25309
              ],
              [
                12.106683,
                41.704535
              ],
              [
                11.191906,
                42.355425
              ],
              [
                10.511948,
                42.931463
              ],
              [
                10.200029,
                43.920007
              ],
              [
                9.702488,
                44.036279
              ],
              [
                8.888946,
                44.366336
              ],
              [
                8.428561,
                44.231228
              ],
              [
                7.850767,
                43.767148
              ],
              [
                7.435185,
                43.693845
              ],
              [
                7.549596,
                44.127901
              ],
              [
                7.007562,
                44.254767
              ],
              [
                6.749955,
                45.028518
              ],
              [
                7.096652,
                45.333099
              ],
              [
                6.802355,
                45.70858
              ],
              [
                6.843593,
                45.991147
              ],
              [
                7.273851,
                45.776948
              ],
              [
                7.755992,
                45.82449
              ],
              [
                8.31663,
                46.163642
              ],
              [
                8.489952,
                46.005151
              ],
              [
                8.966306,
                46.036932
              ],
              [
                9.182882,
                46.440215
              ],
              [
                9.922837,
                46.314899
              ],
              [
                10.363378,
                46.483571
              ],
              [
                10.442701,
                46.893546
              ]
            ]
          ],
          [
            [
              [
                14.761249,
                38.143874
              ],
              [
                15.520376,
                38.231155
              ],
              [
                15.160243,
                37.444046
              ],
              [
                15.309898,
                37.134219
              ],
              [
                15.099988,
                36.619987
              ],
              [
                14.335229,
                36.996631
              ],
              [
                13.826733,
                37.104531
              ],
              [
                12.431004,
                37.61295
              ],
              [
                12.570944,
                38.126381
              ],
              [
                13.741156,
                38.034966
              ],
              [
                14.761249,
                38.143874
              ]
            ]
          ],
          [
            [
              [
                8.709991,
                40.899984
              ],
              [
                9.210012,
                41.209991
              ],
              [
                9.809975,
                40.500009
              ],
              [
                9.669519,
                39.177376
              ],
              [
                9.214818,
                39.240473
              ],
              [
                8.806936,
                38.906618
              ],
              [
                8.428302,
                39.171847
              ],
              [
                8.388253,
                40.378311
              ],
              [
                8.159998,
                40.950007
              ],
              [
                8.709991,
                40.899984
              ]
            ]
          ]
        ]
      }
    },
    {
      "type": "Feature",
      "id": "FRA",
      "properties": {
        "name": "France",
        "iso_a3": "FRA"
      },
      "geometry": {
        "type": "MultiPolygon",
        "coordinates": [
          [
            [
              [
                9.560016,
                42.152492
              ],
              [
                9.229752,
                41.380007
              ],
              [
                8.775723,
                41.583612
              ],
              [
                8.544213,
                42.256517
              ],
              [
                8.746009,
                42.628122
              ],
              [
                9.390001,
                43.009985
              ],
              [
                9.560016,
                42.152492
              ]
            ]
          ],
          [
            [
              [
                3.588184,
                50.378992
              ],
              [
                4.286023,
                49.907497
              ],
              [
                4.799222,
                49.985373
              ],
              [
                5.674052,
                49.529484
              ],
              [
                5.897759,
                49.442667
              ],
              [
                6.18632,
                49.463803
              ],
              [
                6.65823,
                49.201958
              ],
              [
                8.099279,
                49.017784
              ],
              [
                7.593676,
                48.333019
              ],
              [
                7.466759,
                47.620582
              ],
              [
                7.192202,
                47.449766
              ],
              [
                6.736571,
                47.541801
              ],
              [
                6.768714,
                47.287708
              ],
              [
                6.037389,
                46.725779
              ],
              [
                6.022609,
                46.27299
              ],
              [
                6.5001,
                46.429673
              ],
              [
                6.843593,
                45.991147
              ],
              [
                6.802355,
                45.70858
              ],
              [
                7.096652,
                45.333099
              ],
              [
                6.749955,
                45.028518
              ],
              [
                7.007562,
                44.254767
              ],
              [
                7.549596,
                44.127901
              ],
              [
                7.435185,
                43.693845
              ],
              [
                6.529245,
                43.128892
              ],
              [
                4.556963,
                43.399651
              ],
              [
                3.100411,
                43.075201
              ],
              [
                2.985999,
                42.473015
              ],
              [
                1.826793,
                42.343385
              ],
              [
                0.701591,
                42.795734
              ],
              [
                0.338047,
                42.579546
              ],
              [
                -1.502771,
                43.034014
              ],
              [
                -1.901351,
                43.422802
              ],
              [
                -1.384225,
                44.02261
              ],
              [
                -1.193798,
                46.014918
              ],
              [
                -2.225724,
                47.064363
              ],
              [
                -2.963276,
                47.570327
              ],
              [
                -4.491555,
                47.954954
              ],
              [
                -4.59235,
                48.68416
              ],
              [
                -3.295814,
                48.901692
              ],
              [
                -1.616511,
                48.644421
              ],
              [
                -1.933494,
                49.776342
              ],
              [
                -0.989469,
                49.347376
              ],
              [
                1.338761,
                50.127173
              ],
              [
                1.639001,
                50.946606
              ],
              [
                2.513573,
                51.148506
              ],
              [
                2.658422,
                50.796848
              ],
              [
                3.123252,
                50.780363
              ],
              [
                3.588184,
                50.378992
              ]
            ]
          ]
        ]
      }
    },
    {
      "type": "Feature",
      "id": "DEU",
      "properties": {
        "name": "Germany",
        "iso_a3": "DEU"
      },
      "geometry": {
        "type": "Polygon",
        "coordinates": [
          [
            [
              9.921906,
              54.983104
            ],
            [
              9.93958,
              54.596642
            ],
            [
              10.950112,
              54.363607
            ],
            [
              10.939467,
              54.008693
            ],
            [
              11.956252,
              54.196486
            ],
            [
              12.51844,
              54.470371
            ],
            [
              13.647467,
              54.075511
            ],
            [
              14.119686,
              53.757029
            ],
            [
              14.353315,
              53.248171
            ],
            [
              14.074521,
              52.981263
            ],
            [
              14.4376,
              52.62485
            ],
            [
              14.685026,
              52.089947
            ],
            [
              14.607098,
              51.745188
            ],
            [
              15.016996,
              51.106674
            ],
            [
              14.570718,
              51.002339
            ],
            [
              14.307013,
              51.117268
            ],
            [
              14.056228,
              50.926918
            ],
            [
              13.338132,
              50.733234
            ],
            [
              12.966837,
              50.484076
            ],
            [
              12.240111,
              50.266338
            ],
            [
              12.415191,
              49.969121
            ],
            [
              12.521024,
              49.547415
            ],
            [
              13.031329,
              49.307068
            ],
            [
              13.595946,
              48.877172
            ],
            [
              13.243357,
              48.416115
            ],
            [
              12.884103,
              48.289146
            ],
            [
              13.025851,
              47.637584
            ],
            [
              12.932627,
              47.467646
            ],
            [
              12.62076,
              47.672388
            ],
            [
              12.141357,
              47.703083
            ],
            [
              11.426414,
              47.523766
            ],
            [
              10.544504,
              47.566399
            ],
            [
              10.402084,
              47.302488
            ],
            [
              9.896068,
              47.580197
            ],
            [
              9.594226,
              47.525058
            ],
            [
              8.522612,
              47.830828
            ],
            [
              8.317301,
              47.61358
            ],
            [
              7.466759,
              47.620582
            ],
            [
              7.593676,
              48.333019
            ],
            [
              8.099279,
              49.017784
            ],
            [
              6.65823,
              49.201958
            ],
            [
              6.18632,
              49.463803
            ],
            [
              6.242751,
              49.902226
            ],
            [
              6.043073,
              50.128052
            ],
            [
              6.156658,
              50.803721
            ],
            [
              5.988658,
              51.851616
            ],
            [
              6.589397,
              51.852029
            ],
            [
              6.84287,
              52.22844
            ],
            [
              7.092053,
              53.144043
            ],
            [
              6.90514,
              53.482162
            ],
            [
              7.100425,
              53.693932
            ],
            [
              7.936239,
              53.748296
            ],
            [
              8.121706,
              53.527792
            ],
            [
              8.800734,
              54.020786
            ],
            [
              8.572118,
              54.395646
            ],
            [
              8.526229,
              54.962744
            ],
            [
              9.282049,
              54.830865
            ],
            [
              9.921906,
              54.983104
            ]
          ]
        ]
      }
    }
  ]
}
